[{"OBJECT_NAME":"OBJECT V","OBJECT_ID":"2023-085V","EPOCH":"2026-03-09T21:44:00.165408","MEAN_MOTION":15.30745852,"ECCENTRICITY":0.00069081,"INCLINATION":97.4843,"RA_OF_ASC_NODE":179.3833,"ARG_OF_PERICENTER":71.0503,"MEAN_ANOMALY":289.1485,"EPHEMERIS_TYPE":0,"CLASSIFICATION_TYPE":"U","NORAD_CAT_ID":57023,"ELEMENT_SET_NO":999,"REV_AT_EPOCH":15149,"BSTAR":0.00067780507,"MEAN_MOTION_DOT":0.00020109,"MEAN_MOTION_DDOT":0},{"OBJECT_NAME":"STARLINK-35642","OBJECT_ID":"2025-257U","EPOCH":"2026-03-09T15:35:21.768864","MEAN_MOTION":15.30190026,"ECCENTRICITY":0.0001058,"INCLINATION":53.1586,"RA_OF_ASC_NODE":217.4734,"ARG_OF_PERICENTER":94.1495,"MEAN_ANOMALY":265.9627,"EPHEMERIS_TYPE":0,"CLASSIFICATION_TYPE":"U","NORAD_CAT_ID":66398,"ELEMENT_SET_NO":999,"REV_AT_EPOCH":1972,"BSTAR":0.0005005,"MEAN_MOTION_DOT":0.00014489,"MEAN_MOTION_DDOT":0}]
